NORAD_CAT_ID,OBJECT_NAME,OBJECT_TYPE,EPOCH,MEAN_MOTION,ECCENTRICITY,INCLINATION,RA_OF_ASC_NODE,ARG_OF_PERICENTER,MEAN_ANOMALY,BSTAR,MEAN_MOTION_DOT,MEAN_MOTION_DDOT,TLE_LINE0,TLE_LINE1,TLE_LINE2,SEMIMAJOR_AXIS,PERIOD,APOGEE,PERIGEE,DECAYED
54084.0,STARLINK-5183,PAYLOAD,2022-11-05 22:00:01,15.73220283,0.000244,53.2154,67.1851,27.161,74.4703,-8.562600000000001e-05,-0.00012633,0.0,0 STARLINK-5183,1 54084U 22136AK  22309.91668981 -.00012633  00000-0 -85626-4 0  9997,2 54084  53.2154  67.1851 0002440  27.1610  74.4703 15.73220283  1300,6727.837,91.532,351.344,348.061,0.0
54084.0,STARLINK-5183,PAYLOAD,2022-11-06 14:00:01,15.73235339,0.0002377,53.2159,63.8863,21.934,257.4989,-0.0004113,-0.00058044,0.0,0 STARLINK-5183,1 54084U 22136AK  22310.58334491 -.00058044  00000-0 -41130-3 0  9995,2 54084  53.2159  63.8863 0002377  21.9340 257.4989 15.73235339  3187,6727.794,91.531,351.259,348.06,0.0
54084.0,STARLINK-5183,PAYLOAD,2022-11-07 08:00:01,15.73155201,0.000234,53.2164,60.1735,20.9004,188.6345,0.00042481,0.0005931,0.0,0 STARLINK-5183,1 54084U 22136AK  22311.33334491  .00059310  00000-0  42481-3 0  9994,2 54084  53.2164  60.1735 0002340  20.9004 188.6345 15.73155201  3301,6728.023,91.536,351.462,348.314,0.0
54084.0,STARLINK-5183,PAYLOAD,2022-11-07 22:00:00,15.73278152,0.0002605,53.2157,57.2882,16.6697,258.4556,-0.000604,-0.00084839,0.0,0 STARLINK-5183,1 54084U 22136AK  22311.91667824 -.00084839  00000-0 -60400-3 0  9994,2 54084  53.2157  57.2882 0002605  16.6697 258.4556 15.73278152  1306,6727.672,91.529,351.29,347.785,0.0
54084.0,STARLINK-5183,PAYLOAD,2022-11-08 00:00:02,15.73310648,0.0002575,53.216,56.8752,17.1301,10.3377,-0.00041548,-0.00058813,0.0,0 STARLINK-5183,1 54084U 22136AK  22312.00002315 -.00058813  00000-0 -41548-3 0  9998,2 54084  53.2160  56.8752 0002575  17.1301  10.3377 15.73310648  3401,6727.58,91.527,351.177,347.712,0.0
54084.0,STARLINK-5183,PAYLOAD,2022-11-08 10:00:01,15.73252017,0.0002623,53.2163,54.8132,20.411,208.3373,0.00055898,0.00078751,0.0,0 STARLINK-5183,1 54084U 22136AK  22312.41668981  .00078751  00000-0  55898-3 0  9994,2 54084  53.2163  54.8132 0002623  20.4110 208.3373 15.73252017  3470,6727.746999999999,91.53,351.37699999999984,347.847,0.0
54084.0,STARLINK-5183,PAYLOAD,2022-11-08 14:00:01,15.73283792,0.0002794,53.2162,53.9896,19.245,73.9357,0.00031625,0.00044162,0.0,0 STARLINK-5183,1 54084U 22136AK  22312.58334491  .00044162  00000-0  31625-3 0  9999,2 54084  53.2162  53.9896 0002794  19.2450  73.9357 15.73283792  1300,6727.656,91.528,351.401,347.642,0.0
54084.0,STARLINK-5183,PAYLOAD,2022-11-08 22:00:00,15.73367803,0.0002758,53.2164,52.3393,14.3644,167.8632,-0.0011765,-0.00163779,0.0,0 STARLINK-5183,1 54084U 22136AK  22312.91667824 -.00163779  00000-0 -11765-2 0  9995,2 54084  53.2164  52.3393 0002758  14.3644 167.8632 15.73367803  3541,6727.417,91.523,351.13699999999994,347.426,0.0
54084.0,STARLINK-5183,PAYLOAD,2022-11-09 14:00:01,15.73070409,0.0002984,53.2161,49.0409,17.5197,342.6930000000001,0.00030899,0.00042731,0.0,0 STARLINK-5183,1 54084U 22136AK  22313.58334491  .00042731  00000-0  30899-3 0  9992,2 54084  53.2161  49.0409 0002984  17.5197 342.6930 15.73070409  1307,6728.265,91.541,352.13699999999994,348.122,0.0
54084.0,STARLINK-5183,PAYLOAD,2022-11-09 22:00:01,15.73143465,0.0002924,53.2157,47.39100000000001,13.5694,75.4829,-0.00040177,-0.00056509,0.0,0 STARLINK-5183,1 54084U 22136AK  22313.91668981 -.00056509  00000-0 -40177-3 0  9993,2 54084  53.2157  47.3910 0002924  13.5694  75.4829 15.73143465  3709,6728.056,91.536,351.889,347.954,0.0
54084.0,STARLINK-5183,PAYLOAD,2022-11-10 14:00:01,15.73135386,0.0003064,53.2161,44.0936,12.208,254.4256,0.00029954,0.00041516,0.0,0 STARLINK-5183,1 54084U 22136AK  22314.58334491  .00041516  00000-0  29954-3 0  9993,2 54084  53.2161  44.0936 0003064  12.2080 254.4256 15.73135386  1307,6728.079000000002,91.537,352.006,347.8830000000001,0.0
54084.0,STARLINK-5183,PAYLOAD,2022-11-10 22:00:00,15.73167202,0.0003009,53.2161,42.4432,9.6926,345.8092,-0.00021817,-0.00031093,0.0,0 STARLINK-5183,1 54084U 22136AK  22314.91667824 -.00031093  00000-0 -21817-3 0  9990,2 54084  53.2161  42.4432 0003009   9.6926 345.8092 15.73167202  3866,6727.989000000001,91.535,351.87800000000016,347.829,0.0
54084.0,STARLINK-5183,PAYLOAD,2022-11-11 08:00:01,15.73182669,0.0002993,53.2162,40.3811,11.4843,185.1063,0.00032246,0.00044849,0.0,0 STARLINK-5183,1 54084U 22136AK  22315.33334491  .00044849  00000-0  32246-3 0  9997,2 54084  53.2162  40.3811 0002993  11.4843 185.1063 15.73182669  3930,6727.945,91.534,351.8230000000001,347.796,0.0
54084.0,STARLINK-5183,PAYLOAD,2022-11-11 14:00:01,15.7319405,0.0003284,53.2158,39.1455,11.6299,161.6552,0.00054478,0.0007653,0.0,0 STARLINK-5183,1 54084U 22136AK  22315.58334491  .00076530  00000-0  54478-3 0  9997,2 54084  53.2158  39.1455 0003284  11.6299 161.6552 15.73194050  1304,6727.9119999999975,91.534,351.987,347.5680000000001,0.0
54084.0,STARLINK-5183,PAYLOAD,2022-11-11 22:00:00,15.73295948,0.0003228,53.216,37.4925,11.2544,250.9896,-0.00010289,-0.00015102,0.0,0 STARLINK-5183,1 54084U 22136AK  22315.91667824 -.00015102  00000-0 -10289-3 0  9995,2 54084  53.2160  37.4925 0003228  11.2544 250.9896 15.73295948  4020,6727.621999999999,91.528,351.658,347.315,0.0
54084.0,STARLINK-5183,PAYLOAD,2022-11-12 14:00:01,15.73236946,0.0003319,53.2157,34.1966,9.9151,70.365,-0.00038431,-0.00054315,0.0,0 STARLINK-5183,1 54084U 22136AK  22316.58334491 -.00054315  00000-0 -38431-3 0  9998,2 54084  53.2157  34.1966 0003319   9.9151  70.3650 15.73236946  4120,6727.79,91.531,351.88800000000015,347.422,0.0
54084.0,STARLINK-5183,PAYLOAD,2022-11-12 22:00:00,15.73199894,0.0003279,53.2158,32.5457,7.0225,162.2108,-0.00023392,-0.00033332,0.0,0 STARLINK-5183,1 54084U 22136AK  22316.91667824 -.00033332  00000-0 -23392-3 0  9990,2 54084  53.2158  32.5457 0003279   7.0225 162.2108 15.73199894  1300,6727.895,91.533,351.967,347.55400000000014,0.0
54084.0,STARLINK-5183,PAYLOAD,2022-11-13 14:00:01,15.73117895,0.0003542,53.2154,29.248,10.1424,336.9092,0.00043632,0.00060858,0.0,0 STARLINK-5183,1 54084U 22136AK  22317.58334491  .00060858  00000-0  43632-3 0  9995,2 54084  53.2154  29.2480 0003542  10.1424 336.9092 15.73117895  1307,6728.129,91.538,352.37699999999984,347.611,0.0
54084.0,STARLINK-5183,PAYLOAD,2022-11-13 22:00:00,15.73166063,0.0003383,53.215,27.5971,9.3486,66.5562,0.00028044,0.0003887,0.0,0 STARLINK-5183,1 54084U 22136AK  22317.91667824  .00038870  00000-0  28044-3 0  9990,2 54084  53.2150  27.5971 0003383   9.3486  66.5562 15.73166063  1309,6727.9919999999975,91.535,352.1330000000001,347.581,0.0
54084.0,STARLINK-5183,PAYLOAD,2022-11-14 14:00:01,15.7325586,0.0003633,53.2155,24.299,9.6136,244.1517,-1.8248e-05,-3.192e-05,0.0,0 STARLINK-5183,1 54084U 22136AK  22318.58334491 -.00003192  00000-0 -18248-4 0  9992,2 54084  53.2155  24.2990 0003633   9.6136 244.1517 15.73255860  1300,6727.736,91.53,352.045,347.157,0.0
54084.0,STARLINK-5183,PAYLOAD,2022-11-14 22:00:00,15.732548800000002,0.0003474,53.2155,22.6482,7.015,335.7558,-0.00048874,-0.00068843,0.0,0 STARLINK-5183,1 54084U 22136AK  22318.91667824 -.00068843  00000-0 -48874-3 0  9999,2 54084  53.2155  22.6482 0003474   7.0150 335.7558 15.73254880  1302,6727.739000000001,91.53,351.941,347.266,0.0
54084.0,STARLINK-5183,PAYLOAD,2022-11-15 02:00:01,15.73201559,0.0003458,53.2153,21.8225,7.1987,200.075,0.00028243,0.00039213,0.0,0 STARLINK-5183,1 54084U 22136AK  22319.08334491  .00039213  00000-0  28243-3 0  9994,2 54084  53.2153  21.8225 0003458   7.1987 200.0750 15.73201559  4527,6727.891,91.533,352.082,347.42900000000014,0.0
54084.0,STARLINK-5183,PAYLOAD,2022-11-15 14:00:01,15.73151291,0.000386,53.2152,19.3506,11.4947,149.192,0.00070897,0.00099889,0.0,0 STARLINK-5183,1 54084U 22136AK  22319.58334491  .00099889  00000-0  70897-3 0  9996,2 54084  53.2152  19.3506 0003860  11.4947 149.1920 15.73151291  1303,6728.034000000002,91.536,352.496,347.302,0.0
54084.0,STARLINK-5183,PAYLOAD,2022-11-15 18:00:02,15.73217011,0.0003837,53.2146,18.5252,10.8383,14.3526,3.6559e-05,4.515e-05,0.0,0 STARLINK-5183,1 54084U 22136AK  22319.75002315  .00004515  00000-0  36559-4 0  9992,2 54084  53.2146  18.5252 0003837  10.8383  14.3526 15.73217011  4622,6727.847,91.532,352.293,347.13,0.0
54084.0,STARLINK-5183,PAYLOAD,2022-11-15 22:00:00,15.73244086,0.0003612,53.215,17.6993,10.6442,238.9516,-0.00051688,-0.00072707,0.0,0 STARLINK-5183,1 54084U 22136AK  22319.91667824 -.00072707  00000-0 -51688-3 0  9991,2 54084  53.2150  17.6993 0003612  10.6442 238.9516 15.73244086  1301,6727.769,91.531,352.065,347.204,0.0
54084.0,STARLINK-5183,PAYLOAD,2022-11-16 06:00:00,15.73230925,0.0003518,53.2154,16.0486,8.5223,330.0164,-0.00057802,-0.00081106,0.0,0 STARLINK-5183,1 54084U 22136AK  22320.25001157 -.00081106  00000-0 -57802-3 0  9998,2 54084  53.2154  16.0486 0003518   8.5223 330.0164 15.73230925  4700,6727.807,91.531,352.039,347.305,0.0
54084.0,STARLINK-5183,PAYLOAD,2022-11-16 14:00:01,15.73116335,0.0003724,53.2162,14.3992,6.3695,61.1773,0.0013132,0.00187209,0.0,0 STARLINK-5183,1 54084U 22136AK  22320.58335648  .00187209  00000-0  13132-2 0  9995,2 54084  53.2162  14.3992 0003724   6.3695  61.1773 15.73116335  1309,6728.134,91.538,352.504,347.49300000000005,0.0
54084.0,STARLINK-5183,PAYLOAD,2022-11-16 20:00:01,15.73282314,0.0003591,53.2169,13.1589,4.061,40.0719,-0.0007144,-0.00100095,0.0,0 STARLINK-5183,1 54084U 22136AK  22320.83334491 -.00100095  00000-0 -71440-3 0  9995,2 54084  53.2169  13.1589 0003591   4.0610  40.0719 15.73282314  4792,6727.661,91.528,351.941,347.11,0.0
54084.0,STARLINK-5183,PAYLOAD,2022-11-16 22:00:08,15.73268739,0.0003506,53.2173,12.7449,3.5441,153.3005,-0.00069957,-0.00097995,0.0,0 STARLINK-5183,1 54084U 22136AK  22320.91675926 -.00097995  00000-0 -69957-3 0  9999,2 54084  53.2173  12.7449 0003506   3.5441 153.3005 15.73268739  1304,6727.699000000001,91.529,351.923,347.205,0.0
